BEIDOU-2 IGSO-5         
1 37948U 11073A   26175.65702808 -.00000196  00000+0  00000+0 0  9995
2 37948  47.6633 271.4526 0114223 222.0346 107.5350  1.00272136 53204
LUCH-5A                 
1 37951U 11074B   26182.90284270 -.00000044  00000+0  00000+0 0  9996
2 37951   8.7890  73.5939 0002707  41.2150 297.1036  1.00272768 53193
BEIDOU-2 G5             
1 38091U 12008A   26182.88130331  .00000063  00000+0  00000+0 0  9995
2 38091   3.6090  69.6120 0008390 275.6829 310.7210  1.00277498 52519
BEIDOU-2 M3             
1 38250U 12018A   26182.14960573 -.00000069  00000+0  00000+0 0  9998
2 38250  55.7448 304.4042 0020422 273.2421  86.5319  1.86230135 96209
BEIDOU-2 M4             
1 38251U 12018B   26182.08192837 -.00000069  00000+0  00000+0 0  9992
2 38251  55.6447 303.6195 0011579 274.1308  85.7452  1.86229794 96203
SES-5                   
1 38652U 12036A   26183.22715524  .00000044  00000+0  00000+0 0  9990
2 38652   0.0455 319.5896 0002223 138.3980 269.0351  1.00269853 44606
BEIDOU-2 M6             
1 38775U 12050B   26178.03289958 -.00000080  00000+0  00000+0 0  9993
2 38775  56.5526  62.5688 0013469 358.4918   1.5505  1.86231134 93497
GSAT-10                 
1 38779U 12051B   26183.17127174 -.00000154  00000+0  00000+0 0  9992
2 38779   0.0508 248.4929 0008124 204.4586 331.9370  1.00270706 50241
NAVSTAR 67 (USA 239)    
1 38833U 12053A   26182.77459940  .00000033  00000+0  00000+0 0  9994
2 38833  53.5881 143.0019 0181172  65.9876 295.8558  2.00567786 99737
GSAT0103 (GALILEO-FM3)  
1 38857U 12055A   26180.79397422 -.00000025  00000+0  00000+0 0  9990
2 38857  55.8136 101.1997 0004423 307.4227  52.5245  1.70473507 85221
BEIDOU-2 G6             
1 38953U 12059A   26183.10024042 -.00000167  00000+0  00000+0 0  9991
2 38953   4.4577  73.3676 0009492 329.6340 357.2494  1.00270555 50059
LUCH-5B                 
1 38977U 12061A   26182.94659941 -.00000132  00000+0  00000+0 0  9995
2 38977  10.5143  49.7338 0002919 135.3494  59.4447  1.00272720 49753
COSMOS 2485 [GLONASS-M] 
1 39155U 13019A   26179.64150049 -.00000037  00000+0  00000+0 0  9990
2 39155  65.4258  73.2198 0022897 232.6425 127.1980  2.13103400102529
NAVSTAR 68 (USA 242)    
1 39166U 13023A   26182.14340903 -.00000008  00000+0  00000+0 0  9994
2 39166  54.4932 268.4048 0141430  51.0773 310.2414  2.00563527 96169
IRNSS-1A                
1 39199U 13034A   26182.73810925  .00000064  00000+0  00000+0 0  9994
2 39199  35.7520  63.6617 0017942 181.1700 355.7331  1.00279201 47511
NAVSTAR 69 (USA 248)    
1 39533U 14008A   26182.64372740  .00000038  00000+0  00000+0 0  9997
2 39533  53.6565 148.7302 0084215 231.4494 127.7567  2.00560783 89976
ASTRA 5B                
1 39617U 14011B   26183.23079527  .00000148  00000+0  00000+0 0  9999
2 39617   0.0783 302.0127 0002242 163.8701 280.9875  1.00274449 44814
COSMOS 2492 [GLONASS-M] 
1 39620U 14012A   26182.88516916 -.00000051  00000+0  00000+0 0  9996
2 39620  65.2882 313.4363 0010243 321.3461  38.5813  2.13103527 95552
IRNSS-1B                
1 39635U 14017A   26182.73802258  .00000145  00000+0  00000+0 0  9991
2 39635  28.8995 240.1518 0022866 193.7568 166.6239  1.00271492 44943
LUCH-5V                 
1 39727U 14023A   26183.12490265 -.00000261  00000+0  00000+0 0  9995
2 39727   5.1681  69.5979 0002622  56.3248 293.9566  1.00270218 44500
NAVSTAR 70 (USA 251)    
1 39741U 14026A   26182.91946839 -.00000080  00000+0  00000+0 0  9992
2 39741  56.4906 330.9443 0038106 326.1984  33.5541  2.00560049 88837
COSMOS 2500 [GLONASS-M] 
1 40001U 14032A   26182.58548362 -.00000053  00000+0  00000+0 0  9992
2 40001  65.2235 313.1924 0007812 187.4639 172.5247  2.13106189 93763
NAVSTAR 71 (USA 256)    
1 40105U 14045A   26182.51269218 -.00000021  00000+0  00000+0 0  9999
2 40105  55.3618  87.8943 0033861 118.3379 242.0338  2.00559971 86365
GSAT0201 (GALILEO 5)    
1 40128U 14050A   26180.27461735 -.00000039  00000+0  00000+0 0  9998
2 40128  48.8619 272.9404 1676251 179.8513 180.2703  1.85520280 78549
GSAT0202 (GALILEO 6)    
1 40129U 14050B   26181.60808378 -.00000031  00000+0  00000+0 0  9997
2 40129  48.8773 271.9714 1677698 180.6428 179.1780  1.85520713 80732
IRNSS-1C                
1 40269U 14061A   26183.05669769 -.00000155  00000+0  00000+0 0  9991
2 40269   6.5546  88.6478 0022080   4.0859 290.7393  1.00274376 42838
NAVSTAR 72 (USA 258)    
1 40294U 14068A   26181.88291062 -.00000062  00000+0  00000+0 0  9999
2 40294  56.9970  30.4273 0067311  71.0884 289.7026  2.00577197 85489
COSMOS 2501 [GLONASS-K] 
1 40315U 14075A   26181.43994692  .00000079  00000+0  00000+0 0  9998
2 40315  63.6170 189.9132 0022635 212.5837 147.3119  2.13101453 90136
NAVSTAR 73 (USA 260)    
1 40534U 15013A   26182.52201142  .00000067  00000+0  00000+0 0  9993
2 40534  53.1671 203.5847 0109911  40.2564 320.6065  2.00550585 82116
GSAT0203 (GALILEO 7)    
1 40544U 15017A   26182.29078740 -.00000082  00000+0  00000+0 0  9996
2 40544  56.7819 341.2117 0002294 263.0128  96.9526  1.70476409 69441
GSAT0204 (GALILEO 8)    
1 40545U 15017B   26181.37344972 -.00000085  00000+0  00000+0 0  9991
2 40545  56.7889 341.2552 0002318 237.2395 122.7292  1.70475898 32470
